NORAD_CAT_ID,OBJECT_NAME,OBJECT_TYPE,EPOCH,MEAN_MOTION,ECCENTRICITY,INCLINATION,RA_OF_ASC_NODE,ARG_OF_PERICENTER,MEAN_ANOMALY,BSTAR,MEAN_MOTION_DOT,MEAN_MOTION_DDOT,TLE_LINE0,TLE_LINE1,TLE_LINE2,SEMIMAJOR_AXIS,PERIOD,APOGEE,PERIGEE,DECAYED
54208.0,STARLINK-5255,PAYLOAD,2022-11-03 16:00:00,15.88207472,0.0020208,53.2174,111.3978,197.1312,126.6429,-0.0048019,-0.01366442,0.00052069,0 STARLINK-5255,1 54208U 22141BD  22307.66667824 -.01366442  52069-3 -48019-2 0  9995,2 54208  53.2174 111.3978 0020208 197.1312 126.6429 15.88207472  1307,6685.445,90.668,320.82,293.801,0.0
54208.0,STARLINK-5255,PAYLOAD,2022-11-03 22:00:00,15.87533379,0.0017537,53.2172,110.1348,203.4534,110.2389,-0.0048354,-0.01325115,0.00048929,0 STARLINK-5255,1 54208U 22141BD  22307.91667824 -.01325115  48929-3 -48354-2 0  9997,2 54208  53.2172 110.1348 0017537 203.4534 110.2389 15.87533379  1302,6687.3380000000025,90.707,320.93,297.475,0.0
54208.0,STARLINK-5255,PAYLOAD,2022-11-04 06:00:00,15.86686661,0.0014575,53.2176,108.4487,210.7111,208.606,-0.0052075,-0.01201052,0.0,0 STARLINK-5255,1 54208U 22141BD  22308.25001157 -.01201052  00000-0 -52075-2 0  9999,2 54208  53.2176 108.4487 0014575 210.7111 208.6060 15.86686661  1390,6689.717,90.755,321.332,301.831,0.0
54208.0,STARLINK-5255,PAYLOAD,2022-11-04 14:00:01,15.85793952,0.0011779,53.2176,106.7677,220.6854,303.2293,-0.0052471,-0.01158369,0.0,0 STARLINK-5255,1 54208U 22141BD  22308.58334491 -.01158369  00000-0 -52471-2 0  9997,2 54208  53.2176 106.7677 0011779 220.6854 303.2293 15.85793952  1301,6692.227,90.806,321.975,306.209,0.0
54208.0,STARLINK-5255,PAYLOAD,2022-11-04 22:00:01,15.84934276,0.0009327,53.2173,105.0897,244.3214,23.2018,-0.0055504,-0.01191135,0.0,0 STARLINK-5255,1 54208U 22141BD  22308.91668981 -.01191135  00000-0 -55504-2 0  9996,2 54208  53.2173 105.0897 0009327 244.3214  23.2018 15.84934276  1492,6694.647,90.856,322.756,310.268,0.0
54208.0,STARLINK-5255,PAYLOAD,2022-11-05 12:00:00,15.8341046,0.0005269,53.217,102.1536,267.0777,89.0803,-0.0059538,-0.01183227,0.0,0 STARLINK-5255,1 54208U 22141BD  22309.50001157 -.01183227  00000-0 -59538-2 0  9992,2 54208  53.2170 102.1536 0005269 267.0777  89.0803 15.83410460  1590,6698.941,90.943,324.336,317.277,0.0
54208.0,STARLINK-5255,PAYLOAD,2022-11-05 14:00:01,15.83220664,0.0004304,53.2173,101.7357,269.8953,201.5852,-0.0062589,-0.01226308,0.0,0 STARLINK-5255,1 54208U 22141BD  22309.58335648 -.01226308  00000-0 -62589-2 0  9993,2 54208  53.2173 101.7357 0004304 269.8953 201.5852 15.83220664  1303,6699.477,90.954,324.225,318.458,0.0
54208.0,STARLINK-5255,PAYLOAD,2022-11-05 22:00:01,15.82386586,0.0001856,53.2169,100.0642,280.7362,291.1415,-0.0067347,-0.01261515,0.0,0 STARLINK-5255,1 54208U 22141BD  22309.91668981 -.01261515  00000-0 -67347-2 0  9995,2 54208  53.2169 100.0642 0001856 280.7362 291.1415 15.82386586  1655,6701.831,91.002,324.939,322.452,0.0
54208.0,STARLINK-5255,PAYLOAD,2022-11-06 14:00:01,15.80615477,0.0001181,53.217,96.7232,54.2111,355.3256,-0.0070305,-0.01217078,0.0,0 STARLINK-5255,1 54208U 22141BD  22310.58334491 -.01217078  00000-0 -70305-2 0  9999,2 54208  53.2170  96.7232 0001181  54.2111 355.3256 15.80615477  1760,6706.8359999999975,91.104,329.49300000000005,327.909,0.0
54208.0,STARLINK-5255,PAYLOAD,2022-11-07 14:00:01,15.78006967,0.0001064,53.2173,91.7297,56.7265,281.5474,-0.0078635,-0.01208655,0.0,0 STARLINK-5255,1 54208U 22141BD  22311.58334491 -.01208655  00000-0 -78635-2 0  9995,2 54208  53.2173  91.7297 0001064  56.7265 281.5474 15.78006967  1921,6714.225,91.254,336.8040000000001,335.376,0.0
54208.0,STARLINK-5255,PAYLOAD,2022-11-07 22:00:00,15.77130329,0.0001233,53.2171,90.0703,47.3854,25.0512,-0.0080839,-0.01196036,0.0,0 STARLINK-5255,1 54208U 22141BD  22311.91667824 -.01196036  00000-0 -80839-2 0  9999,2 54208  53.2171  90.0703 0001233  47.3854  25.0512 15.77130329  1306,6716.7130000000025,91.305,339.406,337.75,0.0
54208.0,STARLINK-5255,PAYLOAD,2022-11-08 08:00:01,15.76043325,0.0001286,53.2172,87.9958,48.4362,230.2345,-0.008462,-0.01193019,0.0,0 STARLINK-5255,1 54208U 22141BD  22312.33334491 -.01193019  00000-0 -84620-2 0  9997,2 54208  53.2172  87.9958 0001286  48.4362 230.2345 15.76043325  2031,6719.801,91.368,342.53,340.802,0.0
54208.0,STARLINK-5255,PAYLOAD,2022-11-08 14:00:01,15.75402201,0.0001167,53.217,86.7556,59.9306,197.6915,-0.0088051,-0.01204998,0.0,0 STARLINK-5255,1 54208U 22141BD  22312.58334491 -.01204998  00000-0 -88051-2 0  9995,2 54208  53.2170  86.7556 0001167  59.9306 197.6915 15.75402201  1302,6721.624,91.405,344.273,342.705,0.0
54208.0,STARLINK-5255,PAYLOAD,2022-11-08 22:00:00,15.74531903,0.0001324,53.2166,85.1029,31.7373,316.9094,-0.0089881,-0.01186281,0.0,0 STARLINK-5255,1 54208U 22141BD  22312.91667824 -.01186281  00000-0 -89881-2 0  9997,2 54208  53.2166  85.1029 0001324  31.7373 316.9094 15.74531903  1307,6724.101,91.456,346.856,345.075,0.0
54208.0,STARLINK-5255,PAYLOAD,2022-11-09 04:00:00,15.73728492,0.0001281999999999,53.2175,83.8618,42.3806,283.8835,-0.0046954,-0.0062681,0.0,0 STARLINK-5255,1 54208U 22141BD  22313.16667824 -.00626810  00000-0 -46954-2 0  9995,2 54208  53.2175  83.8618 0001282  42.3806 283.8835 15.73728492  2179,6726.389,91.502,349.116,347.392,0.0
54208.0,STARLINK-5255,PAYLOAD,2022-11-09 12:00:00,15.73112947,0.0001463,53.2159,82.2139,37.0287,18.388,0.0010001,0.00141598,0.0,0 STARLINK-5255,1 54208U 22141BD  22313.50001157  .00141598  00000-0  10001-2 0  9991,2 54208  53.2159  82.2139 0001463  37.0287  18.3880 15.73112947  2226,6728.143,91.538,350.99300000000005,349.024,0.0
54208.0,STARLINK-5255,PAYLOAD,2022-11-09 14:00:01,15.73152816,0.000156,53.2157,81.8021,35.6019,132.0193,0.00072921,0.00102772,0.0,0 STARLINK-5255,1 54208U 22141BD  22313.58334491  .00102772  00000-0  72921-3 0  9990,2 54208  53.2157  81.8021 0001560  35.6019 132.0193 15.73152816  1302,6728.03,91.536,350.944,348.845,0.0
54208.0,STARLINK-5255,PAYLOAD,2022-11-09 22:00:01,15.7323908,0.0001724,53.2152,80.1529,33.6257,222.9753,0.00053516,0.0007529,0.0,0 STARLINK-5255,1 54208U 22141BD  22313.91668981  .00075290  00000-0  53516-3 0  9994,2 54208  53.2152  80.1529 0001724  33.6257 222.9753 15.73239080  1306,6727.784000000002,91.531,350.809,348.48900000000015,0.0
54208.0,STARLINK-5255,PAYLOAD,2022-11-10 06:00:00,15.73299442,0.000156,53.2154,78.5016,40.061,305.4847,-0.00012915,-0.00018784,0.0,0 STARLINK-5255,1 54208U 22141BD  22314.25001157 -.00018784  00000-0 -12915-3 0  9993,2 54208  53.2154  78.5016 0001560  40.0610 305.4847 15.73299442  2347,6727.611999999999,91.527,350.526,348.427,0.0
54208.0,STARLINK-5255,PAYLOAD,2022-11-10 14:00:01,15.73232944,0.0001491,53.217,76.8521,48.153,26.4342,-0.00040525,-0.0005719,0.0,0 STARLINK-5255,1 54208U 22141BD  22314.58334491 -.00057190  00000-0 -40525-3 0  9991,2 54208  53.2170  76.8521 0001491  48.1530  26.4342 15.73232944  1309,6727.801,91.531,350.6690000000001,348.663,0.0
54208.0,STARLINK-5255,PAYLOAD,2022-11-10 20:00:01,15.73244103,0.0001793,53.2157,75.6172,27.3496,23.972,-0.0001917,-0.00027489,0.0,0 STARLINK-5255,1 54208U 22141BD  22314.83334491 -.00027489  00000-0 -19170-3 0  9999,2 54208  53.2157  75.6172 0001793  27.3496  23.9720 15.73244103  2435,6727.769,91.531,350.841,348.42800000000005,0.0
54208.0,STARLINK-5255,PAYLOAD,2022-11-10 22:00:00,15.73245624,0.0001767,53.2158,75.2043,26.794,136.7709,-0.00028316,-0.0004025,0.0,0 STARLINK-5255,1 54208U 22141BD  22314.91667824 -.00040250  00000-0 -28316-3 0  9990,2 54208  53.2158  75.2043 0001767  26.7940 136.7709 15.73245624  1301,6727.765,91.531,350.819,348.441,0.0
54208.0,STARLINK-5255,PAYLOAD,2022-11-11 14:00:01,15.73237377,0.0001912,53.2161,71.9052,29.8547,311.6207,-0.00056879,-0.00079827,0.0,0 STARLINK-5255,1 54208U 22141BD  22315.58334491 -.00079827  00000-0 -56879-3 0  9992,2 54208  53.2161  71.9052 0001912  29.8547 311.6207 15.73237377  1300,6727.7890000000025,91.531,350.94,348.367,0.0
54208.0,STARLINK-5255,PAYLOAD,2022-11-11 22:00:00,15.73229346,0.0002027,53.2156,70.2556,26.8901,43.5271,1.402e-05,1.349e-05,0.0,0 STARLINK-5255,1 54208U 22141BD  22315.91667824  .00001349  00000-0  14020-4 0  9993,2 54208  53.2156  70.2556 0002027  26.8901  43.5271 15.73229346  2607,6727.812,91.531,351.04,348.31300000000016,0.0
54208.0,STARLINK-5255,PAYLOAD,2022-11-12 14:00:01,15.73198596,0.0002207,53.2159,66.957,35.7849,212.5533,0.00030631,0.00042586,0.0,0 STARLINK-5255,1 54208U 22141BD  22316.58334491  .00042586  00000-0  30631-3 0  9991,2 54208  53.2159  66.9570 0002207  35.7849 212.5533 15.73198596  1305,6727.899,91.533,351.249,348.279,0.0
54208.0,STARLINK-5255,PAYLOAD,2022-11-12 22:00:00,15.73262142,0.0002093,53.2161,65.3072,27.8018,309.4722,-0.00087314,-0.00121741,0.0,0 STARLINK-5255,1 54208U 22141BD  22316.91667824 -.00121741  00000-0 -87314-3 0  9990,2 54208  53.2161  65.3072 0002093  27.8018 309.4722 15.73262142  2767,6727.718000000003,91.53,350.991,348.175,0.0
54208.0,STARLINK-5255,PAYLOAD,2022-11-13 14:00:01,15.73108996,0.0002105,53.2162,62.0085,14.5749,140.5254,7.806600000000001e-05,0.00010307,0.0,0 STARLINK-5255,1 54208U 22141BD  22317.58334491  .00010307  00000-0  78066-4 0  9993,2 54208  53.2162  62.0085 0002105  14.5749 140.5254 15.73108996  2865,6728.155,91.538,351.436,348.603,0.0
54208.0,STARLINK-5255,PAYLOAD,2022-11-13 22:00:00,15.73143298,0.0002106,53.2157,60.3587,12.6526,231.263,0.00018947,0.0002599,0.0,0 STARLINK-5255,1 54208U 22141BD  22317.91667824  .00025990  00000-0  18947-3 0  9994,2 54208  53.2157  60.3587 0002106  12.6526 231.2630 15.73143298  1308,6728.057,91.536,351.339,348.505,0.0
54208.0,STARLINK-5255,PAYLOAD,2022-11-14 14:00:01,15.73220936,0.000224,53.2162,57.0607,15.2844,46.422,0.00037751,0.00052745,0.0,0 STARLINK-5255,1 54208U 22141BD  22318.58334491  .00052745  00000-0  37751-3 0  9991,2 54208  53.2162  57.0607 0002240  15.2844  46.4220 15.73220936  3028,6727.835,91.532,351.208,348.1930000000001,0.0
